start=new Date('2022-08-16T00:00:00.000Z').valueOf();
sats=[{"DECAY_DATE":null,"MEAN_MOTION_DDOT":"0.0000000000000","CENTER_NAME":"EARTH","LAUNCH_DATE":"2021-05-09","SITE":"AFETR","MEAN_ANOMALY":"290.8665","EPHEMERIS_TYPE":"0","REV_AT_EPOCH":"7022","TLE_LINE1":"1 48473U 21040AX  22227.53769247  .00001063  00000-0  90230-4 0  9999","ELEMENT_SET_NO":"999","TIME_SYSTEM":"UTC","RA_OF_ASC_NODE":"277.1972","PERIOD":"95.592","ARG_OF_PERICENTER":"69.2470","CLASSIFICATION_TYPE":"U","GP_ID":"210297990","MEAN_ELEMENT_THEORY":"SGP4","OBJECT_ID":"2021-040AX","BSTAR":"0.00009023000000","OBJECT_TYPE":"PAYLOAD","SEMIMAJOR_AXIS":"6925.344","NORAD_CAT_ID":"48473","RCS_SIZE":"LARGE","INCLINATION":"53.0536","FILE":"3537378","REF_FRAME":"TEME","PERIAPSIS":"546.266","OBJECT_NAME":"STARLINK-2658","ECCENTRICITY":"0.00013620","EPOCH":"2022-08-15T12:54:16.629408","MEAN_MOTION":"15.06401415","MEAN_MOTION_DOT":"0.00001063","COUNTRY_CODE":"US","APOAPSIS":"548.152","TLE_LINE2":"2 48473  53.0536 277.1972 0001362  69.2470 290.8665 15.06401415 70229"},{"NORAD_CAT_ID":"48474","RCS_SIZE":"LARGE","INCLINATION":"53.0542","REF_FRAME":"TEME","FILE":"3537378","EPOCH":"2022-08-15T20:04:12.479520","MEAN_MOTION":"15.06393646","PERIAPSIS":"546.313","OBJECT_NAME":"STARLINK-2697","ECCENTRICITY":"0.00013280","APOAPSIS":"548.153","TLE_LINE2":"2 48474  53.0542 275.8760 0001328  82.2924 277.8216 15.06393646 70265","MEAN_MOTION_DOT":"-0.00000384","COUNTRY_CODE":"US","MEAN_ANOMALY":"277.8216","DECAY_DATE":null,"MEAN_MOTION_DDOT":"0.0000000000000","CENTER_NAME":"EARTH","LAUNCH_DATE":"2021-05-09","SITE":"AFETR","TLE_LINE1":"1 48474U 21040AY  22227.83625555 -.00000384  00000-0 -69089-5 0  9992","EPHEMERIS_TYPE":"0","REV_AT_EPOCH":"7026","RA_OF_ASC_NODE":"275.8760","PERIOD":"95.593","ARG_OF_PERICENTER":"82.2924","ELEMENT_SET_NO":"999","TIME_SYSTEM":"UTC","BSTAR":"-0.00000690890000","OBJECT_TYPE":"PAYLOAD","SEMIMAJOR_AXIS":"6925.368","CLASSIFICATION_TYPE":"U","MEAN_ELEMENT_THEORY":"SGP4","GP_ID":"210298240","OBJECT_ID":"2021-040AY"},{"MEAN_MOTION":"15.06405566","EPOCH":"2022-08-15T14:35:07.848672","OBJECT_NAME":"STARLINK-2619","ECCENTRICITY":"0.00013770","PERIAPSIS":"546.243","APOAPSIS":"548.150","TLE_LINE2":"2 48475  53.0531 276.9045 0001377  56.3749 303.7371 15.06405566 70236","MEAN_MOTION_DOT":"0.00007257","COUNTRY_CODE":"US","INCLINATION":"53.0531","NORAD_CAT_ID":"48475","RCS_SIZE":"LARGE","REF_FRAME":"TEME","FILE":"3537378","PERIOD":"95.592","ARG_OF_PERICENTER":"56.3749","RA_OF_ASC_NODE":"276.9045","TIME_SYSTEM":"UTC","ELEMENT_SET_NO":"999","SEMIMAJOR_AXIS":"6925.331","OBJECT_TYPE":"PAYLOAD","BSTAR":"0.00050548000000","GP_ID":"210298492","MEAN_ELEMENT_THEORY":"SGP4","OBJECT_ID":"2021-040AZ","CLASSIFICATION_TYPE":"U","MEAN_ANOMALY":"303.7371","LAUNCH_DATE":"2021-05-09","CENTER_NAME":"EARTH","SITE":"AFETR","DECAY_DATE":null,"MEAN_MOTION_DDOT":"0.0000000000000","TLE_LINE1":"1 48475U 21040AZ  22227.60772973  .00007257  00000-0  50548-3 0  9997","REV_AT_EPOCH":"7023","EPHEMERIS_TYPE":"0"},{"TLE_LINE1":"1 48476U 21040BA  22227.82888460  .00000049  00000-0  22175-4 0  9999","EPHEMERIS_TYPE":"0","REV_AT_EPOCH":"7026","MEAN_ANOMALY":"289.0587","MEAN_MOTION_DDOT":"0.0000000000000","DECAY_DATE":null,"SITE":"AFETR","LAUNCH_DATE":"2021-05-09","CENTER_NAME":"EARTH","OBJECT_TYPE":"PAYLOAD","SEMIMAJOR_AXIS":"6925.353","BSTAR":"0.00002217500000","CLASSIFICATION_TYPE":"U","OBJECT_ID":"2021-040BA","GP_ID":"210299234","MEAN_ELEMENT_THEORY":"SGP4","RA_OF_ASC_NODE":"275.8971","ARG_OF_PERICENTER":"71.0568","PERIOD":"95.592","ELEMENT_SET_NO":"999","TIME_SYSTEM":"UTC","REF_FRAME":"TEME","FILE":"3537378","RCS_SIZE":"LARGE","NORAD_CAT_ID":"48476","INCLINATION":"53.0553","TLE_LINE2":"2 48476  53.0553 275.8971 0001527  71.0568 289.0587 15.06398501 70265","APOAPSIS":"548.276","COUNTRY_CODE":"US","MEAN_MOTION_DOT":"0.00000049","MEAN_MOTION":"15.06398501","EPOCH":"2022-08-15T19:53:35.629440","PERIAPSIS":"546.161","ECCENTRICITY":"0.00015270","OBJECT_NAME":"STARLINK-2723"},{"APOAPSIS":"548.222","TLE_LINE2":"2 48478  53.0537 276.8722 0001455  55.5401 304.5726 15.06399584 70234","MEAN_MOTION_DOT":"0.00000663","COUNTRY_CODE":"US","MEAN_MOTION":"15.06399584","EPOCH":"2022-08-15T14:45:44.477568","OBJECT_NAME":"STARLINK-2728","ECCENTRICITY":"0.00014550","PERIAPSIS":"546.207","REF_FRAME":"TEME","FILE":"3537378","INCLINATION":"53.0537","NORAD_CAT_ID":"48478","RCS_SIZE":"LARGE","OBJECT_TYPE":"PAYLOAD","BSTAR":"0.00006338800000","SEMIMAJOR_AXIS":"6925.350","GP_ID":"210297491","MEAN_ELEMENT_THEORY":"SGP4","OBJECT_ID":"2021-040BC","CLASSIFICATION_TYPE":"U","PERIOD":"95.592","ARG_OF_PERICENTER":"55.5401","RA_OF_ASC_NODE":"276.8722","TIME_SYSTEM":"UTC","ELEMENT_SET_NO":"999","TLE_LINE1":"1 48478U 02032DG  22227.61509812  .00000663  00000-0  63388-4 0  9992","REV_AT_EPOCH":"7023","EPHEMERIS_TYPE":"0","MEAN_ANOMALY":"304.5726","CENTER_NAME":"EARTH","LAUNCH_DATE":"2021-05-09","SITE":"AFETR","DECAY_DATE":null,"MEAN_MOTION_DDOT":"0.0000000000000"},{"INCLINATION":"53.0534","NORAD_CAT_ID":"48479","RCS_SIZE":"LARGE","REF_FRAME":"TEME","FILE":"3537378","EPOCH":"2022-08-15T14:40:26.213664","MEAN_MOTION":"15.06407801","OBJECT_NAME":"STARLINK-2755","ECCENTRICITY":"0.00012390","PERIAPSIS":"546.332","APOAPSIS":"548.048","TLE_LINE2":"2 48479  53.0534 276.8866 0001239  74.7673 285.3453 15.06407801 70230","MEAN_MOTION_DOT":"0.00004943","COUNTRY_CODE":"US","MEAN_ANOMALY":"285.3453","LAUNCH_DATE":"2021-05-09","CENTER_NAME":"EARTH","SITE":"AFETR","DECAY_DATE":null,"MEAN_MOTION_DDOT":"0.0000000000000","TLE_LINE1":"1 48479U 21040BD  22227.61141451  .00004943  00000-0  35040-3 0  9992","REV_AT_EPOCH":"7023","EPHEMERIS_TYPE":"0","PERIOD":"95.592","ARG_OF_PERICENTER":"74.7673","RA_OF_ASC_NODE":"276.8866","TIME_SYSTEM":"UTC","ELEMENT_SET_NO":"999","SEMIMAJOR_AXIS":"6925.325","OBJECT_TYPE":"PAYLOAD","BSTAR":"0.00035040000000","GP_ID":"210297741","MEAN_ELEMENT_THEORY":"SGP4","OBJECT_ID":"2021-040BD","CLASSIFICATION_TYPE":"U"},{"APOAPSIS":"548.244","TLE_LINE2":"2 48480  53.0548 288.0102 0001510  70.1248 289.9903 15.06405068 70058","MEAN_MOTION_DOT":"0.00000384","COUNTRY_CODE":"US","MEAN_MOTION":"15.06405068","EPOCH":"2022-08-15T08:36:48.497760","PERIAPSIS":"546.152","OBJECT_NAME":"STARLINK-2690","ECCENTRICITY":"0.00015100","REF_FRAME":"TEME","FILE":"3537056","NORAD_CAT_ID":"48480","RCS_SIZE":"LARGE","INCLINATION":"53.0548","OBJECT_TYPE":"PAYLOAD","BSTAR":"0.00004467400000","SEMIMAJOR_AXIS":"6925.333","CLASSIFICATION_TYPE":"U","GP_ID":"210266914","MEAN_ELEMENT_THEORY":"SGP4","OBJECT_ID":"2021-040BE","RA_OF_ASC_NODE":"288.0102","PERIOD":"95.592","ARG_OF_PERICENTER":"70.1248","ELEMENT_SET_NO":"999","TIME_SYSTEM":"UTC","TLE_LINE1":"1 48480U 21040BE  22227.35889465  .00000384  00000-0  44674-4 0  9998","EPHEMERIS_TYPE":"0","REV_AT_EPOCH":"7005","MEAN_ANOMALY":"289.9903","DECAY_DATE":null,"MEAN_MOTION_DDOT":"0.0000000000000","LAUNCH_DATE":"2021-05-09","CENTER_NAME":"EARTH","SITE":"AFETR"},{"OBJECT_TYPE":"PAYLOAD","SEMIMAJOR_AXIS":"6925.357","BSTAR":"-0.00004670200000","CLASSIFICATION_TYPE":"U","GP_ID":"210275692","MEAN_ELEMENT_THEORY":"SGP4","OBJECT_ID":"2021-040BF","RA_OF_ASC_NODE":"286.0252","PERIOD":"95.592","ARG_OF_PERICENTER":"80.9746","ELEMENT_SET_NO":"999","TIME_SYSTEM":"UTC","TLE_LINE1":"1 48481U 21040BF  22227.86485944 -.00000977  00000-0 -46702-4 0  9993","EPHEMERIS_TYPE":"0","REV_AT_EPOCH":"7140","MEAN_ANOMALY":"279.1389","DECAY_DATE":null,"MEAN_MOTION_DDOT":"0.0000000000000","LAUNCH_DATE":"2021-05-09","CENTER_NAME":"EARTH","SITE":"AFETR","APOAPSIS":"548.114","TLE_LINE2":"2 48481  53.0553 286.0252 0001287  80.9746 279.1389 15.06397160 71404","MEAN_MOTION_DOT":"-0.00000977","COUNTRY_CODE":"US","EPOCH":"2022-08-15T20:45:23.855616","MEAN_MOTION":"15.06397160","PERIAPSIS":"546.331","OBJECT_NAME":"STARLINK-2706","ECCENTRICITY":"0.00012870","REF_FRAME":"TEME","FILE":"3537314","NORAD_CAT_ID":"48481","RCS_SIZE":"LARGE","INCLINATION":"53.0553"},{"SITE":"AFETR","CENTER_NAME":"EARTH","LAUNCH_DATE":"2021-05-09","MEAN_MOTION_DDOT":"0.0000000000000","DECAY_DATE":null,"MEAN_ANOMALY":"282.3299","REV_AT_EPOCH":"7011","EPHEMERIS_TYPE":"0","TLE_LINE1":"1 48482U 21040BG  22227.76529857  .00001339  00000-0  10880-3 0  9993","TIME_SYSTEM":"UTC","ELEMENT_SET_NO":"999","ARG_OF_PERICENTER":"77.7854","PERIOD":"95.592","RA_OF_ASC_NODE":"286.1954","OBJECT_ID":"2021-040BG","GP_ID":"210297991","MEAN_ELEMENT_THEORY":"SGP4","CLASSIFICATION_TYPE":"U","OBJECT_TYPE":"PAYLOAD","BSTAR":"0.00010880000000","SEMIMAJOR_AXIS":"6925.349","INCLINATION":"53.0535","RCS_SIZE":"LARGE","NORAD_CAT_ID":"48482","FILE":"3537378","REF_FRAME":"TEME","ECCENTRICITY":"0.00014660","OBJECT_NAME":"STARLINK-2525","PERIAPSIS":"546.199","MEAN_MOTION":"15.06399814","EPOCH":"2022-08-15T18:22:01.796448","COUNTRY_CODE":"US","MEAN_MOTION_DOT":"0.00001339","TLE_LINE2":"2 48482  53.0535 286.1954 0001466  77.7854 282.3299 15.06399814 70119","APOAPSIS":"548.229"},{"SITE":"AFETR","LAUNCH_DATE":"2021-05-09","CENTER_NAME":"EARTH","MEAN_MOTION_DDOT":"0.0000000000000","DECAY_DATE":null,"MEAN_ANOMALY":"299.6713","REV_AT_EPOCH":"7008","EPHEMERIS_TYPE":"0","TLE_LINE1":"1 48483U 21040BH  22227.56257612 -.00000256  00000-0  17390-5 0  9992","TIME_SYSTEM":"UTC","ELEMENT_SET_NO":"999","ARG_OF_PERICENTER":"60.4427","PERIOD":"95.592","RA_OF_ASC_NODE":"287.1033","OBJECT_ID":"2021-040BH","MEAN_ELEMENT_THEORY":"SGP4","GP_ID":"210298241","CLASSIFICATION_TYPE":"U","OBJECT_TYPE":"PAYLOAD","SEMIMAJOR_AXIS":"6925.325","BSTAR":"0.00000173900000","INCLINATION":"53.0538","RCS_SIZE":"LARGE","NORAD_CAT_ID":"48483","FILE":"3537378","REF_FRAME":"TEME","ECCENTRICITY":"0.00015180","OBJECT_NAME":"STARLINK-2531","PERIAPSIS":"546.138","EPOCH":"2022-08-15T13:30:06.576768","MEAN_MOTION":"15.06407792","COUNTRY_CODE":"US","MEAN_MOTION_DOT":"-0.00000256","TLE_LINE2":"2 48483  53.0538 287.1033 0001518  60.4427 299.6713 15.06407792 70088","APOAPSIS":"548.241"}];
